

*******************************************************************************
Ephemeris / API_USER Fri Dec 17 03:22:42 2021 Pasadena, USA      / Horizons
*******************************************************************************
Target body name: Earth (399)                     {source: DE441}
Center body name: Solar System Barycenter (0)     {source: DE441}
Center-site name: BODY CENTER
*******************************************************************************
Start time      : A.D. 2000-Jan-01 00:00:00.0000 TDB
Stop  time      : A.D. 2001-Dec-01 00:00:00.0000 TDB
Step-size       : 7000 steps
*******************************************************************************
Center geodetic : 0.00000000,0.00000000,0.0000000 {E-lon(deg),Lat(deg),Alt(km)}
Center cylindric: 0.00000000,0.00000000,0.0000000 {E-lon(deg),Dxy(km),Dz(km)}
Center radii    : (undefined)                                                  
Output units    : AU-D
Output type     : GEOMETRIC cartesian states
Output format   : 2 (position and velocity)
Reference frame : Ecliptic of J2000.0
*******************************************************************************
            JDTDB,            Calendar Date (TDB),                      X,                      Y,                      Z,                     VX,                     VY,                     VZ,
**************************************************************************************************************************************************************************************************
$$SOE
2451660.600000000, A.D. 2000-Apr-26 02:24:00.0000, -8.188814936546817E-01, -5.974780606458530E-01,  1.955999519002003E-04,  9.873850132408131E-03, -1.396335648273127E-02,  4.889771074726653E-07,
2451660.700000000, A.D. 2000-Apr-26 04:48:00.0000, -8.178929260416202E-01, -5.988735400406285E-01,  1.956488407631919E-04,  9.897497498856156E-03, -1.394622466500656E-02,  4.887537945548890E-07,
2451660.800000000, A.D. 2000-Apr-26 07:12:00.0000, -8.169019950822635E-01, -6.002673042293344E-01,  1.956976933752312E-04,  9.921117044692179E-03, -1.392905236168799E-02,  4.882519673135214E-07,
2451660.900000000, A.D. 2000-Apr-26 09:36:00.0000, -8.159087035627692E-01, -6.016593491635160E-01,  1.957464818486869E-04,  9.944708687888933E-03, -1.391183957486532E-02,  4.874709048918607E-07,
2451661.000000000, A.D. 2000-Apr-26 12:00:00.0000, -8.149130542775259E-01, -6.030496707949270E-01,  1.957951782259780E-04,  9.968272345862551E-03, -1.389458630662424E-02,  4.864099379626882E-07,
2451661.100000000, A.D. 2000-Apr-26 14:24:00.0000, -8.139150500292089E-01, -6.044382650755292E-01,  1.958437544855751E-04,  9.991807935451047E-03, -1.387729255903431E-02,  4.850684499522042E-07,
2451661.200000000, A.D. 2000-Apr-26 16:48:00.0000, -8.129146936288398E-01, -6.058251279574902E-01,  1.958921825464827E-04,  1.001531537289130E-02, -1.385995833413795E-02,  4.834458784045181E-07,
2451661.300000000, A.D. 2000-Apr-26 19:12:00.0000, -8.119119878958478E-01, -6.072102553931802E-01,  1.959404342747635E-04,  1.003879457379447E-02, -1.384258363394049E-02,  4.815417165225980E-07,
2451661.400000000, A.D. 2000-Apr-26 21:36:00.0000, -8.109069356581329E-01, -6.085936433351671E-01,  1.959884814883946E-04,  1.006224545311991E-02, -1.382516846040145E-02,  4.793555148826026E-07,
2451661.500000000, A.D. 2000-Apr-27 00:00:00.0000, -8.098995397521329E-01, -6.099752877362127E-01,  1.960362959633681E-04,  1.008566792514757E-02, -1.380771281542704E-02,  4.768868832979997E-07,
2451661.600000000, A.D. 2000-Apr-27 02:24:00.0000, -8.088898030228934E-01, -6.113551845492663E-01,  1.960838494396927E-04,  1.010906190344891E-02, -1.379021670086412E-02,  4.741354928786120E-07,
2451661.700000000, A.D. 2000-Apr-27 04:48:00.0000, -8.078777283241388E-01, -6.127333297274586E-01,  1.961311136277438E-04,  1.013242730085649E-02, -1.377268011849558E-02,  4.711010782548366E-07,
2451661.800000000, A.D. 2000-Apr-27 07:12:00.0000, -8.068633185183490E-01, -6.141097192240959E-01,  1.961780602145137E-04,  1.015576402943204E-02, -1.375510307003729E-02,  4.677834399660154E-07,
2451661.900000000, A.D. 2000-Apr-27 09:36:00.0000, -8.058465764768372E-01, -6.154843489926514E-01,  1.962246608704847E-04,  1.017907200043323E-02, -1.373748555713677E-02,  4.641824470406533E-07,
2451662.000000000, A.D. 2000-Apr-27 12:00:00.0000, -8.048275050798331E-01, -6.168572149867613E-01,  1.962708872566762E-04,  1.020235112427918E-02, -1.371982758137359E-02,  4.602980397407864E-07,
2451662.100000000, A.D. 2000-Apr-27 14:24:00.0000, -8.038061072165673E-01, -6.182283131602146E-01,  1.963167110316674E-04,  1.022560131051466E-02, -1.370212914426160E-02,  4.561302324838361E-07,
2451662.200000000, A.D. 2000-Apr-27 16:48:00.0000, -8.027823857853618E-01, -6.195976394669503E-01,  1.963621038594411E-04,  1.024882246777312E-02, -1.368439024725322E-02,  4.516791169450269E-07,
2451662.300000000, A.D. 2000-Apr-27 19:12:00.0000, -8.017563436937215E-01, -6.209651898610488E-01,  1.964070374171284E-04,  1.027201450373863E-02, -1.366661089174576E-02,  4.469448653260059E-07,
2451662.400000000, A.D. 2000-Apr-27 21:36:00.0000, -8.007279838584328E-01, -6.223309602967277E-01,  1.964514834030770E-04,  1.029517732510668E-02, -1.364879107908993E-02,  4.419277337968443E-07,
2451662.500000000, A.D. 2000-Apr-28 00:00:00.0000, -7.996973092056633E-01, -6.236949467283390E-01,  1.964954135459153E-04,  1.031831083754411E-02, -1.363093081060059E-02,  4.366280661237324E-07,
2451662.600000000, A.D. 2000-Apr-28 02:24:00.0000, -7.986643226710671E-01, -6.250571451103633E-01,  1.965387996128203E-04,  1.034141494564807E-02, -1.361303008756995E-02,  4.310462974392799E-07,
2451662.700000000, A.D. 2000-Apr-28 04:48:00.0000, -7.976290271998940E-01, -6.264175513974111E-01,  1.965816134196274E-04,  1.036448955290419E-02, -1.359508891128320E-02,  4.251829582067162E-07,
2451662.800000000, A.D. 2000-Apr-28 07:12:00.0000, -7.965914257471023E-01, -6.277761615442213E-01,  1.966238268397453E-04,  1.038753456164407E-02, -1.357710728303679E-02,  4.190386783215671E-07,
2451662.900000000, A.D. 2000-Apr-28 09:36:00.0000, -7.955515212774765E-01, -6.291329715056639E-01,  1.966654118149142E-04,  1.041054987300213E-02, -1.355908520415932E-02,  4.126141913949195E-07,
2451663.000000000, A.D. 2000-Apr-28 12:00:00.0000, -7.945093167657500E-01, -6.304879772367448E-01,  1.967063403657140E-04,  1.043353538687204E-02, -1.354102267603531E-02,  4.059103391649296E-07,
2451663.100000000, A.D. 2000-Apr-28 14:24:00.0000, -7.934648151967300E-01, -6.318411746926115E-01,  1.967465846021726E-04,  1.045649100186275E-02, -1.352291970013180E-02,  3.989280760796603E-07,
2451663.200000000, A.D. 2000-Apr-28 16:48:00.0000, -7.924180195654292E-01, -6.331925598285644E-01,  1.967861167361175E-04,  1.047941661525424E-02, -1.350477627802791E-02,  3.916684740020052E-07,
2451663.300000000, A.D. 2000-Apr-28 19:12:00.0000, -7.913689328772007E-01, -6.345421286000679E-01,  1.968249090920827E-04,  1.050231212295330E-02, -1.348659241144758E-02,  3.841327270602945E-07,
2451663.400000000, A.D. 2000-Apr-28 21:36:00.0000, -7.903175581478770E-01, -6.358898769627679E-01,  1.968629341206065E-04,  1.052517741944928E-02, -1.346836810229531E-02,  3.763221566179093E-07,
2451663.500000000, A.D. 2000-Apr-29 00:00:00.0000, -7.892638984039149E-01, -6.372358008725115E-01,  1.969001644108817E-04,  1.054801239777010E-02, -1.345010335269530E-02,  3.682382163598524E-07,
2451663.600000000, A.D. 2000-Apr-29 02:24:00.0000, -7.882079566825431E-01, -6.385798962853712E-01,  1.969365727044018E-04,  1.057081694943857E-02, -1.343179816503380E-02,  3.598824974839633E-07,
2451663.700000000, A.D. 2000-Apr-29 04:48:00.0000, -7.871497360319147E-01, -6.399221591576725E-01,  1.969721319087570E-04,  1.059359096442946E-02, -1.341345254200487E-02,  3.512567339998569E-07,
2451663.800000000, A.D. 2000-Apr-29 07:12:00.0000, -7.860892395112651E-01, -6.412625854460279E-01,  1.970068151122762E-04,  1.061633433112706E-02, -1.339506648665969E-02,  3.423628080883918E-07,
2451663.900000000, A.D. 2000-Apr-29 09:36:00.0000, -7.850264701910721E-01, -6.426011711073754E-01,  1.970405955992674E-04,  1.063904693628392E-02, -1.337664000245916E-02,  3.332027555473169E-07,
2451664.000000000, A.D. 2000-Apr-29 12:00:00.0000, -7.839614311532217E-01, -6.439379120990215E-01,  1.970734468654569E-04,  1.066172866498065E-02, -1.335817309333033E-02,  3.237787712882147E-07,
2451664.100000000, A.D. 2000-Apr-29 14:24:00.0000, -7.828941254911771E-01, -6.452728043786915E-01,  1.971053426343247E-04,  1.068437940058701E-02, -1.333966576372621E-02,  3.140932148714039E-07,
2451664.200000000, A.D. 2000-Apr-29 16:48:00.0000, -7.818245563101512E-01, -6.466058439045850E-01,  1.971362568735403E-04,  1.070699902472474E-02, -1.332111801868930E-02,  3.041486160644387E-07,
2451664.300000000, A.D. 2000-Apr-29 19:12:00.0000, -7.807527267272844E-01, -6.479370266354375E-01,  1.971661638127424E-04,  1.072958741723215E-02, -1.330252986391872E-02,  2.939476804098410E-07,
2451664.400000000, A.D. 2000-Apr-29 21:36:00.0000, -7.796786398718231E-01, -6.492663485305908E-01,  1.971950379610701E-04,  1.075214445613071E-02, -1.328390130584100E-02,  2.834932947641076E-07,
2451664.500000000, A.D. 2000-Apr-30 00:00:00.0000, -7.786022988853040E-01, -6.505938055500687E-01,  1.972228541255904E-04,  1.077467001759408E-02, -1.326523235168447E-02,  2.727885328336378E-07,
2451664.600000000, A.D. 2000-Apr-30 02:24:00.0000, -7.775237069217399E-01, -6.519193936546609E-01,  1.972495874303730E-04,  1.079716397592341E-02, -1.324652300955652E-02,  2.618366607322077E-07,
2451664.700000000, A.D. 2000-Apr-30 04:48:00.0000, -7.764428671478086E-01, -6.532431088060155E-01,  1.972752133359639E-04,  1.081962620350760E-02, -1.322777328852880E-02,  2.506411418921051E-07,
2451664.800000000, A.D. 2000-Apr-30 07:12:00.0000, -7.753597827430453E-01, -6.545649469667393E-01,  1.972997076592073E-04,  1.084205657081825E-02, -1.320898319871700E-02,  2.392056429970953E-07,
